{
  "fetched_at": "2026-05-22T14:13:12.595152+00:00",
  "satellites": {
    "57166": {
      "name": "Meteor M2-3",
      "tle_line1": "1 57166U 23091A   26142.31218763 -.00000009  00000+0  14826-4 0  9990",
      "tle_line2": "2 57166  98.6096 197.8175 0002938 235.3286 124.7616 14.24044287150834"
    },
    "59051": {
      "name": "Meteor M2-4",
      "tle_line1": "1 59051U 24039A   26142.29753899  .00000011  00000+0  24604-4 0  9996",
      "tle_line2": "2 59051  98.6997 101.9235 0005995 240.9792 119.0785 14.22426550115584"
    },
    "38771": {
      "name": "MetOp-B",
      "tle_line1": "1 38771U 12049A   26142.21515671  .00000064  00000+0  49126-4 0  9990",
      "tle_line2": "2 38771  98.6520 194.2302 0003395  74.7663 285.3889 14.21424636709576"
    },
    "43689": {
      "name": "MetOp-C",
      "tle_line1": "1 43689U 18087A   26142.23580233  .00000065  00000+0  49440-4 0  9990",
      "tle_line2": "2 43689  98.6657 202.3116 0000636 149.8105 210.3110 14.21504146391145"
    },
    "60543": {
      "name": "Arctic Weather Satellite",
      "tle_line1": "1 60543U 24149CD  26142.16098970  .00000564  00000+0  64380-4 0  9992",
      "tle_line2": "2 60543  97.6806 213.3692 0002418 157.0709 203.0617 14.89805900 95429"
    }
  }
}